[
    {
        "OBJECT_NAME": "IRIDIUM 176",
        "OBJECT_ID": "2019-002B",
        "EPOCH": "2025-05-16T02:11:58.411392",
        "MEAN_MOTION": 14.72248022,
        "ECCENTRICITY": 0.0002183,
        "INCLINATION": 86.611,
        "RA_OF_ASC_NODE": 159.582,
        "ARG_OF_PERICENTER": 107.1531,
        "MEAN_ANOMALY": 252.9926,
        "EPHEMERIS_TYPE": 0,
        "CLASSIFICATION_TYPE": "U",
        "NORAD_CAT_ID": 43923,
        "ELEMENT_SET_NO": 999,
        "REV_AT_EPOCH": 34082,
        "BSTAR": 4.88e-05,
        "MEAN_MOTION_DOT": 3.32e-06,
        "MEAN_MOTION_DDOT": 0,
        "period": 1.62570736,
        "radius": 7017921.21,
        "altitude": 639.9212104,
        "angle": 149.5346038
    },
    {
        "OBJECT_NAME": "IRIDIUM 168",
        "OBJECT_ID": "2019-002C",
        "EPOCH": "2025-05-16T01:50:50.844768",
        "MEAN_MOTION": 14.34217516,
        "ECCENTRICITY": 0.0002322,
        "INCLINATION": 86.3987,
        "RA_OF_ASC_NODE": 159.658,
        "ARG_OF_PERICENTER": 92.6005,
        "MEAN_ANOMALY": 267.5457,
        "EPHEMERIS_TYPE": 0,
        "CLASSIFICATION_TYPE": "U",
        "NORAD_CAT_ID": 43924,
        "ELEMENT_SET_NO": 999,
        "REV_AT_EPOCH": 33205,
        "BSTAR": 9.32e-06,
        "MEAN_MOTION_DOT": 4.6e-07,
        "MEAN_MOTION_DDOT": 0,
        "period": 1.668815516,
        "radius": 7141440.02,
        "altitude": 763.4400204,
        "angle": 144.0053486
    },
    {
        "OBJECT_NAME": "IRIDIUM 173",
        "OBJECT_ID": "2019-002D",
        "EPOCH": "2025-05-15T13:49:18.832224",
        "MEAN_MOTION": 14.34217513,
        "ECCENTRICITY": 0.0002181,
        "INCLINATION": 86.3982,
        "RA_OF_ASC_NODE": 159.7726,
        "ARG_OF_PERICENTER": 95.6251,
        "MEAN_ANOMALY": 264.5194,
        "EPHEMERIS_TYPE": 0,
        "CLASSIFICATION_TYPE": "U",
        "NORAD_CAT_ID": 43925,
        "ELEMENT_SET_NO": 999,
        "REV_AT_EPOCH": 33197,
        "BSTAR": 1.95e-05,
        "MEAN_MOTION_DOT": 7.4e-07,
        "MEAN_MOTION_DDOT": 0,
        "period": 1.66881552,
        "radius": 7141440.03,
        "altitude": 763.4400303,
        "angle": 144.0053482
    },
    {
        "OBJECT_NAME": "IRIDIUM 169",
        "OBJECT_ID": "2019-002E",
        "EPOCH": "2025-05-15T12:46:34.665024",
        "MEAN_MOTION": 14.38605935,
        "ECCENTRICITY": 0.0002774,
        "INCLINATION": 86.4276,
        "RA_OF_ASC_NODE": 191.3612,
        "ARG_OF_PERICENTER": 126.3498,
        "MEAN_ANOMALY": 233.7957,
        "EPHEMERIS_TYPE": 0,
        "CLASSIFICATION_TYPE": "U",
        "NORAD_CAT_ID": 43926,
        "ELEMENT_SET_NO": 999,
        "REV_AT_EPOCH": 33305,
        "BSTAR": 0.000113,
        "MEAN_MOTION_DOT": 3.67e-06,
        "MEAN_MOTION_DDOT": 0,
        "period": 1.663724851,
        "radius": 7126909.478,
        "altitude": 748.9094783,
        "angle": 144.6474117
    },
    {
        "OBJECT_NAME": "IRIDIUM 172",
        "OBJECT_ID": "2019-002F",
        "EPOCH": "2025-05-15T10:19:14.712960",
        "MEAN_MOTION": 14.34217598,
        "ECCENTRICITY": 0.0002031,
        "INCLINATION": 86.3983,
        "RA_OF_ASC_NODE": 159.8398,
        "ARG_OF_PERICENTER": 89.6362,
        "MEAN_ANOMALY": 270.5067,
        "EPHEMERIS_TYPE": 0,
        "CLASSIFICATION_TYPE": "U",
        "NORAD_CAT_ID": 43927,
        "ELEMENT_SET_NO": 999,
        "REV_AT_EPOCH": 33195,
        "BSTAR": 5.45e-05,
        "MEAN_MOTION_DOT": 1.72e-06,
        "MEAN_MOTION_DDOT": 0,
        "period": 1.668815421,
        "radius": 7141439.748,
        "altitude": 763.4397482,
        "angle": 144.0053606
    },
    {
        "OBJECT_NAME": "IRIDIUM 175",
        "OBJECT_ID": "2019-002G",
        "EPOCH": "2025-05-15T09:45:53.553312",
        "MEAN_MOTION": 14.72244036,
        "ECCENTRICITY": 0.0003383,
        "INCLINATION": 86.1476,
        "RA_OF_ASC_NODE": 114.2505,
        "ARG_OF_PERICENTER": 98.1968,
        "MEAN_ANOMALY": 261.9632,
        "EPHEMERIS_TYPE": 0,
        "CLASSIFICATION_TYPE": "U",
        "NORAD_CAT_ID": 43928,
        "ELEMENT_SET_NO": 999,
        "REV_AT_EPOCH": 34071,
        "BSTAR": 6.97e-05,
        "MEAN_MOTION_DOT": 4.65e-06,
        "MEAN_MOTION_DDOT": 0,
        "period": 1.625711761,
        "radius": 7017933.877,
        "altitude": 639.9338774,
        "angle": 149.5340288
    },
    {
        "OBJECT_NAME": "IRIDIUM 171",
        "OBJECT_ID": "2019-002H",
        "EPOCH": "2025-05-15T14:53:14.874720",
        "MEAN_MOTION": 14.34217729,
        "ECCENTRICITY": 0.0002678,
        "INCLINATION": 86.3993,
        "RA_OF_ASC_NODE": 160.0228,
        "ARG_OF_PERICENTER": 90.473,
        "MEAN_ANOMALY": 269.6773,
        "EPHEMERIS_TYPE": 0,
        "CLASSIFICATION_TYPE": "U",
        "NORAD_CAT_ID": 43929,
        "ELEMENT_SET_NO": 999,
        "REV_AT_EPOCH": 33197,
        "BSTAR": 4.81e-05,
        "MEAN_MOTION_DOT": 1.55e-06,
        "MEAN_MOTION_DDOT": 0,
        "period": 1.668815268,
        "radius": 7141439.313,
        "altitude": 763.4393133,
        "angle": 144.0053798
    },
    {
        "OBJECT_NAME": "IRIDIUM 170",
        "OBJECT_ID": "2019-002J",
        "EPOCH": "2025-05-16T02:20:54.144096",
        "MEAN_MOTION": 14.72252931,
        "ECCENTRICITY": 0.0002704,
        "INCLINATION": 86.6109,
        "RA_OF_ASC_NODE": 159.5845,
        "ARG_OF_PERICENTER": 99.9839,
        "MEAN_ANOMALY": 260.1683,
        "EPHEMERIS_TYPE": 0,
        "CLASSIFICATION_TYPE": "U",
        "NORAD_CAT_ID": 43930,
        "ELEMENT_SET_NO": 999,
        "REV_AT_EPOCH": 34083,
        "BSTAR": 7.65e-05,
        "MEAN_MOTION_DOT": 5.07e-06,
        "MEAN_MOTION_DDOT": 0,
        "period": 1.625701939,
        "radius": 7017905.61,
        "altitude": 639.9056103,
        "angle": 149.535312
    },
    {
        "OBJECT_NAME": "IRIDIUM 167",
        "OBJECT_ID": "2019-002K",
        "EPOCH": "2025-05-15T13:03:38.916288",
        "MEAN_MOTION": 14.34217448,
        "ECCENTRICITY": 0.0002728,
        "INCLINATION": 86.3986,
        "RA_OF_ASC_NODE": 159.8114,
        "ARG_OF_PERICENTER": 96.5133,
        "MEAN_ANOMALY": 263.6374,
        "EPHEMERIS_TYPE": 0,
        "CLASSIFICATION_TYPE": "U",
        "NORAD_CAT_ID": 43931,
        "ELEMENT_SET_NO": 999,
        "REV_AT_EPOCH": 33196,
        "BSTAR": -1.59e-05,
        "MEAN_MOTION_DOT": -2.5e-07,
        "MEAN_MOTION_DDOT": 0,
        "period": 1.668815595,
        "radius": 7141440.246,
        "altitude": 763.4402461,
        "angle": 144.0053387
    },
    {
        "OBJECT_NAME": "IRIDIUM 181",
        "OBJECT_ID": "2023-068S",
        "EPOCH": "2025-05-15T07:03:56.858976",
        "MEAN_MOTION": 14.43307308,
        "ECCENTRICITY": 0.0002786,
        "INCLINATION": 86.4544,
        "RA_OF_ASC_NODE": 222.96,
        "ARG_OF_PERICENTER": 86.4066,
        "MEAN_ANOMALY": 273.7454,
        "EPHEMERIS_TYPE": 0,
        "CLASSIFICATION_TYPE": "U",
        "NORAD_CAT_ID": 56726,
        "ELEMENT_SET_NO": 999,
        "REV_AT_EPOCH": 10504,
        "BSTAR": 7.27e-05,
        "MEAN_MOTION_DOT": 2.65e-06,
        "MEAN_MOTION_DDOT": 0,
        "period": 1.658305498,
        "radius": 7111424.452,
        "altitude": 733.4244524,
        "angle": 145.3341828
    },
    {
        "OBJECT_NAME": "IRIDIUM 177",
        "OBJECT_ID": "2023-068T",
        "EPOCH": "2025-05-16T02:17:33.783360",
        "MEAN_MOTION": 14.80221707,
        "ECCENTRICITY": 0.0002809,
        "INCLINATION": 86.1978,
        "RA_OF_ASC_NODE": 157.3585,
        "ARG_OF_PERICENTER": 92.1502,
        "MEAN_ANOMALY": 268.0041,
        "EPHEMERIS_TYPE": 0,
        "CLASSIFICATION_TYPE": "U",
        "NORAD_CAT_ID": 56727,
        "ELEMENT_SET_NO": 999,
        "REV_AT_EPOCH": 10762,
        "BSTAR": 3.48e-05,
        "MEAN_MOTION_DOT": 2.92e-06,
        "MEAN_MOTION_DDOT": 0,
        "period": 1.61694997,
        "radius": 6992695.686,
        "altitude": 614.6956858,
        "angle": 150.6828328
    }
]